ONEWEB-0558             
1 56059U 23043P   25117.56658289  .00000023  00000+0  24286-4 0  9992
2 56059  87.9264 326.8722 0001267  85.7641 274.3637 13.21825080103332
ONEWEB-0559             
1 56060U 23043Q   25117.47985015  .00000008  00000+0 -12079-4 0  9995
2 56060  87.9263 326.8824 0001519  73.1583 286.9718 13.21827344103336
ONEWEB-0566             
1 56061U 23043R   25117.09505063  .00000060  00000+0  11442-3 0  9994
2 56061  87.9261 326.9581 0001257  77.1809 282.9466 13.21824116103262
ONEWEB-0568             
1 56062U 23043S   25117.45954814  .00000041  00000+0  74406-4 0  9996
2 56062  87.9019 311.6320 0001953  95.3057 264.8297 13.16596750104273
ONEWEB-0574             
1 56063U 23043T   25117.31583651  .00000013  00000+0 -66745-7 0  9999
2 56063  87.9260 326.9032 0001999  82.6565 277.4796 13.21825917103330
ONEWEB-0575             
1 56064U 23043U   25117.52921241  .00000110  00000+0  25436-3 0  9999
2 56064  87.9019 311.6310 0002248  85.3238 274.8150 13.16596618104274
ONEWEB-0576             
1 56065U 23043V   25117.51020986 -.00000036  00000+0 -12689-3 0  9990
2 56065  87.9017 311.6250 0001956  91.6754 268.4601 13.16595190104267
ONEWEB-0577             
1 56066U 23043W   25117.51655060  .00000075  00000+0  16222-3 0  9996
2 56066  87.9018 311.6244 0002409  81.6626 278.4778 13.16596071104291
